[{"OBJECT_NAME":"STARLINK-4320","OBJECT_ID":"2022-077S","EPOCH":"2026-03-09T11:34:03.063360","MEAN_MOTION":15.01260038,"ECCENTRICITY":4.368e-5,"INCLINATION":97.6005,"RA_OF_ASC_NODE":250.01,"ARG_OF_PERICENTER":138.228,"MEAN_ANOMALY":221.8978,"EPHEMERIS_TYPE":0,"CLASSIFICATION_TYPE":"U","NORAD_CAT_ID":53059,"ELEMENT_SET_NO":999,"REV_AT_EPOCH":20088,"BSTAR":-2.9316888e-5,"MEAN_MOTION_DOT":-4.35e-6,"MEAN_MOTION_DDOT":0},{"OBJECT_NAME":"QPS-SAR-10 (WADATSUMI-I)","OBJECT_ID":"2025-104A","EPOCH":"2026-03-09T22:18:19.817856","MEAN_MOTION":15.00816738,"ECCENTRICITY":0.00107055,"INCLINATION":42.0035,"RA_OF_ASC_NODE":106.051,"ARG_OF_PERICENTER":46.9104,"MEAN_ANOMALY":313.2617,"EPHEMERIS_TYPE":0,"CLASSIFICATION_TYPE":"U","NORAD_CAT_ID":64055,"ELEMENT_SET_NO":999,"REV_AT_EPOCH":4451,"BSTAR":0.00049051731,"MEAN_MOTION_DOT":6.161e-5,"MEAN_MOTION_DDOT":0}]
